[{"OBJECT_NAME":"COSMOS 2539","OBJECT_ID":"2019-048A","EPOCH":"2026-04-27T01:36:10.496160","MEAN_MOTION":1.0027019,"ECCENTRICITY":4.458e-5,"INCLINATION":0.0326,"RA_OF_ASC_NODE":66.1052,"ARG_OF_PERICENTER":74.5359,"MEAN_ANOMALY":110.4523,"EPHEMERIS_TYPE":0,"CLASSIFICATION_TYPE":"U","NORAD_CAT_ID":44457,"ELEMENT_SET_NO":999,"REV_AT_EPOCH":2471,"BSTAR":0,"MEAN_MOTION_DOT":7.0e-7,"MEAN_MOTION_DDOT":0},{"OBJECT_NAME":"EDRS-C","OBJECT_ID":"2019-049A","EPOCH":"2026-04-27T05:18:38.510784","MEAN_MOTION":1.00272687,"ECCENTRICITY":0.00012781,"INCLINATION":0.0293,"RA_OF_ASC_NODE":131.964,"ARG_OF_PERICENTER":249.3411,"MEAN_ANOMALY":56.0722,"EPHEMERIS_TYPE":0,"CLASSIFICATION_TYPE":"U","NORAD_CAT_ID":44475,"ELEMENT_SET_NO":999,"REV_AT_EPOCH":2469,"BSTAR":0,"MEAN_MOTION_DOT":-2.72e-6,"MEAN_MOTION_DDOT":0},{"OBJECT_NAME":"INTELSAT 39 (IS-39)","OBJECT_ID":"2019-049B","EPOCH":"2026-04-27T03:10:38.767296","MEAN_MOTION":1.00269427,"ECCENTRICITY":4.405e-5,"INCLINATION":0.0212,"RA_OF_ASC_NODE":248.8246,"ARG_OF_PERICENTER":353.0774,"MEAN_ANOMALY":82.8304,"EPHEMERIS_TYPE":0,"CLASSIFICATION_TYPE":"U","NORAD_CAT_ID":44476,"ELEMENT_SET_NO":999,"REV_AT_EPOCH":2461,"BSTAR":0,"MEAN_MOTION_DOT":0,"MEAN_MOTION_DDOT":0},{"OBJECT_NAME":"AMOS-17","OBJECT_ID":"2019-050A","EPOCH":"2026-04-27T05:12:38.611584","MEAN_MOTION":1.00269569,"ECCENTRICITY":0.00014098,"INCLINATION":0.0154,"RA_OF_ASC_NODE":329.6214,"ARG_OF_PERICENTER":68.1223,"MEAN_ANOMALY":272.6242,"EPHEMERIS_TYPE":0,"CLASSIFICATION_TYPE":"U","NORAD_CAT_ID":44479,"ELEMENT_SET_NO":999,"REV_AT_EPOCH":2467,"BSTAR":0,"MEAN_MOTION_DOT":9.9e-7,"MEAN_MOTION_DDOT":0},{"OBJECT_NAME":"AEHF-5 (USA 292)","OBJECT_ID":"2019-051A","EPOCH":"2026-04-27T04:36:21.692736","MEAN_MOTION":1.00272726,"ECCENTRICITY":0.00694422,"INCLINATION":1.5036,"RA_OF_ASC_NODE":332.4492,"ARG_OF_PERICENTER":2.7597,"MEAN_ANOMALY":42.1517,"EPHEMERIS_TYPE":0,"CLASSIFICATION_TYPE":"U","NORAD_CAT_ID":44481,"ELEMENT_SET_NO":999,"REV_AT_EPOCH":2475,"BSTAR":0,"MEAN_MOTION_DOT":-2.71e-6,"MEAN_MOTION_DDOT":0},{"OBJECT_NAME":"EUTELSAT 5 WEST B","OBJECT_ID":"2019-067A","EPOCH":"2026-04-27T05:28:38.743680","MEAN_MOTION":1.00271585,"ECCENTRICITY":0.00031831,"INCLINATION":0.0693,"RA_OF_ASC_NODE":11.9053,"ARG_OF_PERICENTER":24.7405,"MEAN_ANOMALY":255.7273,"EPHEMERIS_TYPE":0,"CLASSIFICATION_TYPE":"U","NORAD_CAT_ID":44624,"ELEMENT_SET_NO":999,"REV_AT_EPOCH":2392,"BSTAR":0,"MEAN_MOTION_DOT":-5.2e-7,"MEAN_MOTION_DDOT":0},{"OBJECT_NAME":"TJS-4","OBJECT_ID":"2019-070A","EPOCH":"2026-04-27T02:41:38.411232","MEAN_MOTION":1.00269796,"ECCENTRICITY":0.00029643,"INCLINATION":0.0783,"RA_OF_ASC_NODE":76.9771,"ARG_OF_PERICENTER":354.1663,"MEAN_ANOMALY":267.885,"EPHEMERIS_TYPE":0,"CLASSIFICATION_TYPE":"U","NORAD_CAT_ID":44637,"ELEMENT_SET_NO":999,"REV_AT_EPOCH":2402,"BSTAR":0,"MEAN_MOTION_DOT":-1.8e-6,"MEAN_MOTION_DDOT":0},{"OBJECT_NAME":"BEIDOU-3 IGSO-3","OBJECT_ID":"2019-073A","EPOCH":"2026-04-26T20:39:11.920032","MEAN_MOTION":1.00252491,"ECCENTRICITY":0.00421999,"INCLINATION":54.891,"RA_OF_ASC_NODE":281.4498,"ARG_OF_PERICENTER":188.8144,"MEAN_ANOMALY":171.0242,"EPHEMERIS_TYPE":0,"CLASSIFICATION_TYPE":"U","NORAD_CAT_ID":44709,"ELEMENT_SET_NO":999,"REV_AT_EPOCH":2394,"BSTAR":0,"MEAN_MOTION_DOT":-2.01e-6,"MEAN_MOTION_DDOT":0},{"OBJECT_NAME":"TIBA-1","OBJECT_ID":"2019-080A","EPOCH":"2026-04-27T04:56:38.684256","MEAN_MOTION":1.00273332,"ECCENTRICITY":0.00018135,"INCLINATION":0.058,"RA_OF_ASC_NODE":346.8955,"ARG_OF_PERICENTER":56.0549,"MEAN_ANOMALY":281.9081,"EPHEMERIS_TYPE":0,"CLASSIFICATION_TYPE":"U","NORAD_CAT_ID":44800,"ELEMENT_SET_NO":999,"REV_AT_EPOCH":2354,"BSTAR":0,"MEAN_MOTION_DOT":1.45e-6,"MEAN_MOTION_DDOT":0},{"OBJECT_NAME":"INMARSAT GX5","OBJECT_ID":"2019-080B","EPOCH":"2026-04-27T05:12:38.611584","MEAN_MOTION":1.00269889,"ECCENTRICITY":0.00017321,"INCLINATION":0.0479,"RA_OF_ASC_NODE":25.4396,"ARG_OF_PERICENTER":9.1258,"MEAN_ANOMALY":269.8097,"EPHEMERIS_TYPE":0,"CLASSIFICATION_TYPE":"U","NORAD_CAT_ID":44801,"ELEMENT_SET_NO":999,"REV_AT_EPOCH":627,"BSTAR":0,"MEAN_MOTION_DOT":6.4e-7,"MEAN_MOTION_DDOT":0},{"OBJECT_NAME":"JCSAT-18 (KACIFIC 1)","OBJECT_ID":"2019-091A","EPOCH":"2026-04-27T05:18:38.510784","MEAN_MOTION":1.00270856,"ECCENTRICITY":6.74e-6,"INCLINATION":0.0242,"RA_OF_ASC_NODE":1.9728,"ARG_OF_PERICENTER":275.8963,"MEAN_ANOMALY":167.0151,"EPHEMERIS_TYPE":0,"CLASSIFICATION_TYPE":"U","NORAD_CAT_ID":44868,"ELEMENT_SET_NO":999,"REV_AT_EPOCH":2349,"BSTAR":0,"MEAN_MOTION_DOT":-2.11e-6,"MEAN_MOTION_DDOT":0},{"OBJECT_NAME":"ELEKTRO-L 3","OBJECT_ID":"2019-095A","EPOCH":"2026-04-27T01:49:21.828576","MEAN_MOTION":1.00271321,"ECCENTRICITY":0.00010808,"INCLINATION":0.1267,"RA_OF_ASC_NODE":75.8393,"ARG_OF_PERICENTER":297.9664,"MEAN_ANOMALY":304.5436,"EPHEMERIS_TYPE":0,"CLASSIFICATION_TYPE":"U","NORAD_CAT_ID":44903,"ELEMENT_SET_NO":999,"REV_AT_EPOCH":2319,"BSTAR":0,"MEAN_MOTION_DOT":-1.06e-6,"MEAN_MOTION_DDOT":0},{"OBJECT_NAME":"SHIJIAN-20 (SJ-20)","OBJECT_ID":"2019-097A","EPOCH":"2026-04-27T04:26:51.768096","MEAN_MOTION":1.00274744,"ECCENTRICITY":0.0011595,"INCLINATION":4.7912,"RA_OF_ASC_NODE":75.6727,"ARG_OF_PERICENTER":51.4579,"MEAN_ANOMALY":199.5213,"EPHEMERIS_TYPE":0,"CLASSIFICATION_TYPE":"U","NORAD_CAT_ID":44910,"ELEMENT_SET_NO":999,"REV_AT_EPOCH":2318,"BSTAR":0,"MEAN_MOTION_DOT":1.29e-6,"MEAN_MOTION_DDOT":0},{"OBJECT_NAME":"TJS-5","OBJECT_ID":"2020-002A","EPOCH":"2026-04-27T02:53:38.567328","MEAN_MOTION":1.00271268,"ECCENTRICITY":0.0006194,"INCLINATION":0.1386,"RA_OF_ASC_NODE":270.8676,"ARG_OF_PERICENTER":123.6541,"MEAN_ANOMALY":331.5148,"EPHEMERIS_TYPE":0,"CLASSIFICATION_TYPE":"U","NORAD_CAT_ID":44978,"ELEMENT_SET_NO":999,"REV_AT_EPOCH":2319,"BSTAR":0,"MEAN_MOTION_DOT":-3.53e-6,"MEAN_MOTION_DDOT":0},{"OBJECT_NAME":"GSAT-30","OBJECT_ID":"2020-005A","EPOCH":"2026-04-27T00:13:48.396288","MEAN_MOTION":1.00268413,"ECCENTRICITY":0.00028219,"INCLINATION":0.0192,"RA_OF_ASC_NODE":121.9629,"ARG_OF_PERICENTER":308.3012,"MEAN_ANOMALY":231.2022,"EPHEMERIS_TYPE":0,"CLASSIFICATION_TYPE":"U","NORAD_CAT_ID":45026,"ELEMENT_SET_NO":999,"REV_AT_EPOCH":2299,"BSTAR":0,"MEAN_MOTION_DOT":0,"MEAN_MOTION_DDOT":0},{"OBJECT_NAME":"EUTELSAT KONNECT","OBJECT_ID":"2020-005B","EPOCH":"2026-04-27T05:12:38.611584","MEAN_MOTION":1.00270858,"ECCENTRICITY":0.00019437,"INCLINATION":0.0709,"RA_OF_ASC_NODE":89.5586,"ARG_OF_PERICENTER":205.6818,"MEAN_ANOMALY":5.333,"EPHEMERIS_TYPE":0,"CLASSIFICATION_TYPE":"U","NORAD_CAT_ID":45027,"ELEMENT_SET_NO":999,"REV_AT_EPOCH":2382,"BSTAR":0,"MEAN_MOTION_DOT":3.9e-7,"MEAN_MOTION_DDOT":0},{"OBJECT_NAME":"JCSAT-17","OBJECT_ID":"2020-013A","EPOCH":"2026-04-27T00:22:51.752928","MEAN_MOTION":1.00271769,"ECCENTRICITY":0.00040496,"INCLINATION":5.3942,"RA_OF_ASC_NODE":356.3829,"ARG_OF_PERICENTER":26.9282,"MEAN_ANOMALY":333.4072,"EPHEMERIS_TYPE":0,"CLASSIFICATION_TYPE":"U","NORAD_CAT_ID":45245,"ELEMENT_SET_NO":999,"REV_AT_EPOCH":2271,"BSTAR":0,"MEAN_MOTION_DOT":-3.34e-6,"MEAN_MOTION_DDOT":0}]
