COSMOS 2539             
1 44457U 19048A   26117.06678815  .00000070  00000+0  00000+0 0  9999
2 44457   0.0326  66.1052 0000445  74.5359 110.4523  1.00270190 24713
EDRS-C                  
1 44475U 19049A   26117.22127906 -.00000272  00000+0  00000+0 0  9993
2 44475   0.0293 131.9640 0001278 249.3411  56.0722  1.00272687 24692
INTELSAT 39 (IS-39)     
1 44476U 19049B   26117.13239314  .00000000  00000+0  00000+0 0  9999
2 44476   0.0212 248.8246 0000440 353.0774  82.8304  1.00269427 24612
AMOS-17                 
1 44479U 19050A   26117.21711356  .00000099  00000+0  00000+0 0  9992
2 44479   0.0154 329.6214 0001409  68.1223 272.6242  1.00269569 24675
AEHF-5 (USA 292)        
1 44481U 19051A   26117.19191774 -.00000271  00000+0  00000+0 0  9992
2 44481   1.5036 332.4492 0069442   2.7597  42.1517  1.00272726 24755
EUTELSAT 5 WEST B       
1 44624U 19067A   26117.22822620 -.00000052  00000+0  00000+0 0  9990
2 44624   0.0693  11.9053 0003183  24.7405 255.7273  1.00271585 23922
TJS-4                   
1 44637U 19070A   26117.11225013 -.00000180  00000+0  00000+0 0  9991
2 44637   0.0783  76.9771 0002964 354.1663 267.8850  1.00269796 24024
BEIDOU-3 IGSO-3         
1 44709U 19073A   26116.86055463 -.00000201  00000+0  00000+0 0  9999
2 44709  54.8910 281.4498 0042199 188.8144 171.0242  1.00252491 23947
TIBA-1                  
1 44800U 19080A   26117.20600329  .00000145  00000+0  00000+0 0  9991
2 44800   0.0580 346.8955 0001813  56.0549 281.9081  1.00273332 23547
INMARSAT GX5            
1 44801U 19080B   26117.21711356  .00000064  00000+0  00000+0 0  9996
2 44801   0.0479  25.4396 0001732   9.1258 269.8097  1.00269889  6275
JCSAT-18 (KACIFIC 1)    
1 44868U 19091A   26117.22127906 -.00000211  00000+0  00000+0 0  9999
2 44868   0.0242   1.9728 0000067 275.8963 167.0151  1.00270856 23498
ELEKTRO-L 3             
1 44903U 19095A   26117.07594709 -.00000106  00000+0  00000+0 0  9998
2 44903   0.1267  75.8393 0001080 297.9664 304.5436  1.00271321 23192
SHIJIAN-20 (SJ-20)      
1 44910U 19097A   26117.18532139  .00000129  00000+0  00000+0 0  9993
2 44910   4.7912  75.6727 0011595  51.4579 199.5213  1.00274744 23182
TJS-5                   
1 44978U 20002A   26117.12058527 -.00000353  00000+0  00000+0 0  9993
2 44978   0.1386 270.8676 0006194 123.6541 331.5148  1.00271268 23197
GSAT-30                 
1 45026U 20005A   26117.00958792  .00000000  00000+0  00000+0 0  9999
2 45026   0.0192 121.9629 0002821 308.3012 231.2022  1.00268413 22990
EUTELSAT KONNECT        
1 45027U 20005B   26117.21711356  .00000039  00000+0  00000+0 0  9998
2 45027   0.0709  89.5586 0001943 205.6818   5.3330  1.00270858 23824
JCSAT-17                
1 45245U 20013A   26117.01587677 -.00000334  00000+0  00000+0 0  9993
2 45245   5.3942 356.3829 0004049  26.9282 333.4072  1.00271769 22714
